[{"OBJECT_NAME":"M-SEL\/CORTEZ","OBJECT_ID":"2025-052X","EPOCH":"2026-03-09T22:43:08.037984","MEAN_MOTION":15.2443435,"ECCENTRICITY":0.00063111,"INCLINATION":97.4031,"RA_OF_ASC_NODE":323.6247,"ARG_OF_PERICENTER":125.7323,"MEAN_ANOMALY":234.4503,"EPHEMERIS_TYPE":0,"CLASSIFICATION_TYPE":"U","NORAD_CAT_ID":63231,"ELEMENT_SET_NO":999,"REV_AT_EPOCH":5479,"BSTAR":0.00042924652,"MEAN_MOTION_DOT":0.00010472,"MEAN_MOTION_DDOT":0},{"OBJECT_NAME":"FENGYUN 1C DEB","OBJECT_ID":"1999-025CMK","EPOCH":"2026-03-07T03:30:19.798272","MEAN_MOTION":15.19499855,"ECCENTRICITY":0.00275543,"INCLINATION":98.8642,"RA_OF_ASC_NODE":134.1649,"ARG_OF_PERICENTER":306.5016,"MEAN_ANOMALY":53.3676,"EPHEMERIS_TYPE":0,"CLASSIFICATION_TYPE":"U","NORAD_CAT_ID":31934,"ELEMENT_SET_NO":999,"REV_AT_EPOCH":62119,"BSTAR":0.0037988961,"MEAN_MOTION_DOT":0.0008222,"MEAN_MOTION_DDOT":0}]
